start=new Date('2022-06-07T00:00:00.000Z').valueOf();
sats=[{"REV_AT_EPOCH":"130","ELEMENT_SET_NO":"999","DECAY_DATE":null,"ARG_OF_PERICENTER":"28.1777","OBJECT_TYPE":"PAYLOAD","RA_OF_ASC_NODE":"146.0573","ECCENTRICITY":"0.00009730","SITE":"AFETR","MEAN_ELEMENT_THEORY":"SGP4","SEMIMAJOR_AXIS":"6739.837","CENTER_NAME":"EARTH","LAUNCH_DATE":"2022-04-21","OBJECT_ID":"2022-041AW","EPOCH":"2022-06-06T22:00:00.999936","MEAN_MOTION_DOT":"-0.00722071","PERIAPSIS":"361.046","NORAD_CAT_ID":"52305","FILE":"3484350","RCS_SIZE":"LARGE","TIME_SYSTEM":"UTC","APOAPSIS":"362.358","TLE_LINE1":"1 52305U 22041AW  22157.91667824 -.00722071  00000-0 -66815-2 0  9993","INCLINATION":"53.2175","MEAN_MOTION":"15.69020734","TLE_LINE2":"2 52305  53.2175 146.0573 0000973  28.1777 154.7540 15.69020734  1304","PERIOD":"91.777","MEAN_MOTION_DDOT":"0.0000000000000","OBJECT_NAME":"STARLINK-3724","BSTAR":"-0.00668150000000","CLASSIFICATION_TYPE":"U","COUNTRY_CODE":"US","REF_FRAME":"TEME","EPHEMERIS_TYPE":"0","MEAN_ANOMALY":"154.7540","GP_ID":"205529444"},{"NORAD_CAT_ID":"52306","MEAN_MOTION_DOT":"-0.00017814","PERIAPSIS":"347.071","EPOCH":"2022-06-06T22:00:00.999936","OBJECT_ID":"2022-041AX","LAUNCH_DATE":"2022-04-21","CENTER_NAME":"EARTH","SEMIMAJOR_AXIS":"6727.836","MEAN_ELEMENT_THEORY":"SGP4","SITE":"AFETR","ECCENTRICITY":"0.00039100","RA_OF_ASC_NODE":"145.9880","OBJECT_TYPE":"PAYLOAD","ARG_OF_PERICENTER":"4.6473","DECAY_DATE":null,"ELEMENT_SET_NO":"999","REV_AT_EPOCH":"130","GP_ID":"205528937","MEAN_ANOMALY":"201.6477","EPHEMERIS_TYPE":"0","COUNTRY_CODE":"US","REF_FRAME":"TEME","CLASSIFICATION_TYPE":"U","BSTAR":"-0.00012258000000","OBJECT_NAME":"STARLINK-3747","MEAN_MOTION_DDOT":"0.0000000000000","PERIOD":"91.532","TLE_LINE2":"2 52306  53.2158 145.9880 0003910   4.6473 201.6477 15.73220670  1308","INCLINATION":"53.2158","TLE_LINE1":"1 52306U 22041AX  22157.91667824 -.00017814  00000-0 -12258-3 0  9999","MEAN_MOTION":"15.73220670","APOAPSIS":"352.332","TIME_SYSTEM":"UTC","FILE":"3484350","RCS_SIZE":"LARGE"},{"COUNTRY_CODE":"US","REF_FRAME":"TEME","GP_ID":"205529373","EPHEMERIS_TYPE":"0","MEAN_ANOMALY":"175.8368","OBJECT_NAME":"STARLINK-3755","BSTAR":"-0.00669360000000","CLASSIFICATION_TYPE":"U","TLE_LINE2":"2 52307  53.2175 146.0567 0000753   7.7352 175.8368 15.69025952  1306","MEAN_MOTION_DDOT":"0.0000000000000","PERIOD":"91.777","TLE_LINE1":"1 52307U 22041AY  22157.91667824 -.00723373  00000-0 -66936-2 0  9995","INCLINATION":"53.2175","MEAN_MOTION":"15.69025952","APOAPSIS":"362.194","TIME_SYSTEM":"UTC","RCS_SIZE":"LARGE","FILE":"3484350","LAUNCH_DATE":"2022-04-21","CENTER_NAME":"EARTH","SEMIMAJOR_AXIS":"6739.822","NORAD_CAT_ID":"52307","PERIAPSIS":"361.179","MEAN_MOTION_DOT":"-0.00723373","EPOCH":"2022-06-06T22:00:00.999936","OBJECT_ID":"2022-041AY","SITE":"AFETR","MEAN_ELEMENT_THEORY":"SGP4","OBJECT_TYPE":"PAYLOAD","ECCENTRICITY":"0.00007530","RA_OF_ASC_NODE":"146.0567","ELEMENT_SET_NO":"999","REV_AT_EPOCH":"130","ARG_OF_PERICENTER":"7.7352","DECAY_DATE":null},{"TLE_LINE2":"2 52308  53.2155 145.9866 0004025   6.6337 200.8482 15.73166020  1305","PERIOD":"91.535","MEAN_MOTION_DDOT":"0.0000000000000","TIME_SYSTEM":"UTC","FILE":"3484350","RCS_SIZE":"LARGE","TLE_LINE1":"1 52308U 22041AZ  22157.91667824  .00071867  00000-0  51268-3 0  9991","MEAN_MOTION":"15.73166020","INCLINATION":"53.2155","APOAPSIS":"352.565","COUNTRY_CODE":"US","REF_FRAME":"TEME","MEAN_ANOMALY":"200.8482","EPHEMERIS_TYPE":"0","GP_ID":"205529625","OBJECT_NAME":"STARLINK-3745","CLASSIFICATION_TYPE":"U","BSTAR":"0.00051268000000","OBJECT_TYPE":"PAYLOAD","ECCENTRICITY":"0.00040250","RA_OF_ASC_NODE":"145.9866","ELEMENT_SET_NO":"999","REV_AT_EPOCH":"130","DECAY_DATE":null,"ARG_OF_PERICENTER":"6.6337","SEMIMAJOR_AXIS":"6727.992","CENTER_NAME":"EARTH","LAUNCH_DATE":"2022-04-21","EPOCH":"2022-06-06T22:00:00.999936","OBJECT_ID":"2022-041AZ","NORAD_CAT_ID":"52308","PERIAPSIS":"347.149","MEAN_MOTION_DOT":"0.00071867","SITE":"AFETR","MEAN_ELEMENT_THEORY":"SGP4"},{"OBJECT_NAME":"STARLINK-3756","CLASSIFICATION_TYPE":"U","BSTAR":"0.00047376000000","COUNTRY_CODE":"US","REF_FRAME":"TEME","GP_ID":"205529109","MEAN_ANOMALY":"199.8378","EPHEMERIS_TYPE":"0","MEAN_MOTION":"15.73168718","TLE_LINE1":"1 52309U 22041BA  22157.91667824  .00066328  00000-0  47376-3 0  9993","INCLINATION":"53.2155","APOAPSIS":"352.571","TIME_SYSTEM":"UTC","RCS_SIZE":"LARGE","FILE":"3484350","TLE_LINE2":"2 52309  53.2155 145.9889 0004045   7.0507 199.8378 15.73168718  1304","MEAN_MOTION_DDOT":"0.0000000000000","PERIOD":"91.535","SITE":"AFETR","MEAN_ELEMENT_THEORY":"SGP4","LAUNCH_DATE":"2022-04-21","CENTER_NAME":"EARTH","SEMIMAJOR_AXIS":"6727.984","NORAD_CAT_ID":"52309","MEAN_MOTION_DOT":"0.00066328","PERIAPSIS":"347.128","EPOCH":"2022-06-06T22:00:00.999936","OBJECT_ID":"2022-041BA","ELEMENT_SET_NO":"999","REV_AT_EPOCH":"130","ARG_OF_PERICENTER":"7.0507","DECAY_DATE":null,"OBJECT_TYPE":"PAYLOAD","ECCENTRICITY":"0.00040450","RA_OF_ASC_NODE":"145.9889"},{"GP_ID":"205529274","EPHEMERIS_TYPE":"0","MEAN_ANOMALY":"204.3394","COUNTRY_CODE":"US","REF_FRAME":"TEME","BSTAR":"0.00033744000000","CLASSIFICATION_TYPE":"U","OBJECT_NAME":"STARLINK-3688","MEAN_MOTION_DDOT":"0.0000000000000","PERIOD":"91.535","TLE_LINE2":"2 52310  53.2156 145.9840 0004009   4.3321 204.3394 15.73168919  1301","INCLINATION":"53.2156","TLE_LINE1":"1 52310U 22041BB  22157.91667824  .00046954  00000-0  33744-3 0  9992","MEAN_MOTION":"15.73168919","APOAPSIS":"352.546","TIME_SYSTEM":"UTC","RCS_SIZE":"LARGE","FILE":"3484350","NORAD_CAT_ID":"52310","MEAN_MOTION_DOT":"0.00046954","PERIAPSIS":"347.152","EPOCH":"2022-06-06T22:00:00.999936","OBJECT_ID":"2022-041BB","LAUNCH_DATE":"2022-04-21","SEMIMAJOR_AXIS":"6727.984","CENTER_NAME":"EARTH","MEAN_ELEMENT_THEORY":"SGP4","SITE":"AFETR","ECCENTRICITY":"0.00040090","RA_OF_ASC_NODE":"145.9840","OBJECT_TYPE":"PAYLOAD","ARG_OF_PERICENTER":"4.3321","DECAY_DATE":null,"ELEMENT_SET_NO":"999","REV_AT_EPOCH":"130"},{"OBJECT_NAME":"STARLINK-3750","CLASSIFICATION_TYPE":"U","BSTAR":"0.00048047000000","COUNTRY_CODE":"US","REF_FRAME":"TEME","GP_ID":"205529038","EPHEMERIS_TYPE":"0","MEAN_ANOMALY":"202.8600","APOAPSIS":"352.526","TLE_LINE1":"1 52311U 22041BC  22157.91667824  .00067328  00000-0  48047-3 0  9993","INCLINATION":"53.2157","MEAN_MOTION":"15.73183854","FILE":"3484350","RCS_SIZE":"LARGE","TIME_SYSTEM":"UTC","TLE_LINE2":"2 52311  53.2157 145.9862 0004042   5.2085 202.8600 15.73183854  1309","MEAN_MOTION_DDOT":"0.0000000000000","PERIOD":"91.534","SITE":"AFETR","MEAN_ELEMENT_THEORY":"SGP4","LAUNCH_DATE":"2022-04-21","SEMIMAJOR_AXIS":"6727.941","CENTER_NAME":"EARTH","PERIAPSIS":"347.087","MEAN_MOTION_DOT":"0.00067328","NORAD_CAT_ID":"52311","OBJECT_ID":"2022-041BC","EPOCH":"2022-06-06T22:00:00.999936","REV_AT_EPOCH":"130","ELEMENT_SET_NO":"999","ARG_OF_PERICENTER":"5.2085","DECAY_DATE":null,"OBJECT_TYPE":"PAYLOAD","RA_OF_ASC_NODE":"145.9862","ECCENTRICITY":"0.00040420"},{"PERIOD":"91.535","MEAN_MOTION_DDOT":"0.0000000000000","TLE_LINE2":"2 52312  53.2157 145.9824 0003991 356.4476 212.8253 15.73170015  1305","RCS_SIZE":"LARGE","FILE":"3484350","TIME_SYSTEM":"UTC","APOAPSIS":"352.531","TLE_LINE1":"1 52312U 22041BD  22157.91667824  .00056391  00000-0  40390-3 0  9995","MEAN_MOTION":"15.73170015","INCLINATION":"53.2157","MEAN_ANOMALY":"212.8253","EPHEMERIS_TYPE":"0","GP_ID":"205529544","COUNTRY_CODE":"US","REF_FRAME":"TEME","CLASSIFICATION_TYPE":"U","BSTAR":"0.00040390000000","OBJECT_NAME":"STARLINK-3752","RA_OF_ASC_NODE":"145.9824","ECCENTRICITY":"0.00039910","OBJECT_TYPE":"PAYLOAD","DECAY_DATE":null,"ARG_OF_PERICENTER":"356.4476","REV_AT_EPOCH":"130","ELEMENT_SET_NO":"999","OBJECT_ID":"2022-041BD","EPOCH":"2022-06-06T22:00:00.999936","PERIAPSIS":"347.161","MEAN_MOTION_DOT":"0.00056391","NORAD_CAT_ID":"52312","CENTER_NAME":"EARTH","SEMIMAJOR_AXIS":"6727.981","LAUNCH_DATE":"2022-04-21","MEAN_ELEMENT_THEORY":"SGP4","SITE":"AFETR"},{"TIME_SYSTEM":"UTC","RCS_SIZE":"LARGE","FILE":"3484350","MEAN_MOTION":"15.73147205","TLE_LINE1":"1 52313U 22041BE  22157.91667824  .00074159  00000-0  52918-3 0  9997","INCLINATION":"53.2159","APOAPSIS":"352.539","TLE_LINE2":"2 52313  53.2159 145.9819 0003906 356.9626 212.9581 15.73147205  1300","PERIOD":"91.536","MEAN_MOTION_DDOT":"0.0000000000000","OBJECT_NAME":"STARLINK-3749","CLASSIFICATION_TYPE":"U","BSTAR":"0.00052918000000","REF_FRAME":"TEME","COUNTRY_CODE":"US","MEAN_ANOMALY":"212.9581","EPHEMERIS_TYPE":"0","GP_ID":"205529445","ELEMENT_SET_NO":"999","REV_AT_EPOCH":"130","DECAY_DATE":null,"ARG_OF_PERICENTER":"356.9626","OBJECT_TYPE":"PAYLOAD","ECCENTRICITY":"0.00039060","RA_OF_ASC_NODE":"145.9819","SITE":"AFETR","MEAN_ELEMENT_THEORY":"SGP4","SEMIMAJOR_AXIS":"6728.046","CENTER_NAME":"EARTH","LAUNCH_DATE":"2022-04-21","EPOCH":"2022-06-06T22:00:00.999936","OBJECT_ID":"2022-041BE","NORAD_CAT_ID":"52313","MEAN_MOTION_DOT":"0.00074159","PERIAPSIS":"347.283"},{"PERIOD":"93.169","MEAN_MOTION_DDOT":"0.0000000000000","TLE_LINE2":"2 52331  53.2174 250.4497 0001313  49.7807 349.3478 15.45579832  1303","FILE":"3484350","RCS_SIZE":"LARGE","TIME_SYSTEM":"UTC","APOAPSIS":"430.571","INCLINATION":"53.2174","TLE_LINE1":"1 52331U 22045A   22157.91667824 -.00721106  00000-0 -15953-1 0  9990","MEAN_MOTION":"15.45579832","EPHEMERIS_TYPE":"0","MEAN_ANOMALY":"349.3478","GP_ID":"205529111","COUNTRY_CODE":"US","REF_FRAME":"TEME","BSTAR":"-0.01595300000000","CLASSIFICATION_TYPE":"U","OBJECT_NAME":"STARLINK-3889","RA_OF_ASC_NODE":"250.4497","ECCENTRICITY":"0.00013130","OBJECT_TYPE":"PAYLOAD","DECAY_DATE":null,"ARG_OF_PERICENTER":"49.7807","REV_AT_EPOCH":"130","ELEMENT_SET_NO":"999","OBJECT_ID":"2022-045A","EPOCH":"2022-06-06T22:00:00.999936","PERIAPSIS":"428.783","MEAN_MOTION_DOT":"-0.00721106","NORAD_CAT_ID":"52331","CENTER_NAME":"EARTH","SEMIMAJOR_AXIS":"6807.812","LAUNCH_DATE":"2022-04-29","MEAN_ELEMENT_THEORY":"SGP4","SITE":"AFETR"}];
